BEIJING 1               
1 28890U 05043A   23012.14986155  .00000527  00000+0  11550-3 0  9994
2 28890  98.1397 136.0280 0014021 237.5456 122.4386 14.61584695917626
HJ-1A                   
1 33320U 08041A   23012.21715838  .00000804  00000+0  11781-3 0  9999
2 33320  97.6580  40.2746 0019472 273.4462  86.4521 14.78057383773225
HJ-1B                   
1 33321U 08041B   23012.23329150  .00001738  00000+0  24478-3 0  9994
2 33321  97.6729  44.2744 0032670 292.4180  67.3572 14.78169044773228
YAOGAN 4                
1 33446U 08061A   23012.10004483  .00001165  00000+0  16939-3 0  9996
2 33446  97.8390 311.1190 0016163 173.6673 186.4745 14.77673097760407
DEIMOS-1                
1 35681U 09041A   23012.06437244  .00000716  00000+0  12068-3 0  9998
2 35681  97.6907 217.1985 0000308 355.4085   4.7126 14.72235671722466
UK-DMC 2                
1 35683U 09041C   23012.10763905  .00001026  00000+0  17207-3 0  9996
2 35683  97.7101 179.1308 0001293  67.2015 292.9327 14.71683874722191
RISAT 1                 
1 38248U 12017A   23012.17505644  .00007891  00000+0  44378-3 0  9999
2 38248  97.5487  26.3852 0002227 252.7324 107.3664 15.13542901590395
DMC3-FM1                
1 40715U 15032A   23012.13241337  .00000923  00000+0  12181-3 0  9999
2 40715  97.8211 259.5354 0005380 185.4039 174.7126 14.82360509404202
DMC3-FM2                
1 40716U 15032B   23012.15560235  .00000942  00000+0  12419-3 0  9998
2 40716  97.8256 260.3096 0007099 192.2695 167.8352 14.82374499404216
DMC3-FM3                
1 40717U 15032C   23012.17640563  .00000933  00000+0  12308-3 0  9991
2 40717  97.8293 261.3349 0008800 191.4628 168.6398 14.82350713404210
